Number,Volcano Name,Country,Region,Latitude,Longitude,Elev,Type,Status,Last Known Eruption
1402-08=,Acatenango,Guatemala,Guatemala,14.501,-90.876,3976,Stratovolcano,Historical,D1
0803-17=,Adatara,Japan,Honshu-Japan,37.62,140.28,1718,Stratovolcano,Historical,D1
0604-02=,Agung,Indonesia,Lesser Sunda Is,-8.342,115.508,3142,Stratovolcano,Historical,D1
1000-123,Akademia Nauk,Russia,Kamchatka,53.98,159.45,1180,Stratovolcano,Historical,D1
0805-07=,Akan,Japan,Hokkaido-Japan,43.38,144.02,1499,Caldera,Historical,D1
0803-23=,Akita-Komaga-take,Japan,Honshu-Japan,39.75,140.8,1637,Stratovolcano,Historical,D1
0803-26=,Akita-Yake-yama,Japan,Honshu-Japan,39.97,140.77,1366,Complex volcano,Historical,D1
1101-32-,Akutan,United States,Aleutian Is,54.13,-165.97,1303,Stratovolcano,Historical,D1
0900-39=,Alaid,Russia,Kuril Is,50.858,155.55,2339,Stratovolcano,Historical,D1
1503-04=,"Alcedo, Volcan",Ecuador,Galapagos,-0.43,-91.12,1130,Shield volcano,Historical,D1
0507-04=,Ambrym,Vanuatu,Vanuatu-SW Pacific,-16.25,168.12,1334,Pyroclastic shield,Historical,D1
1101-19-,Amukta,United States,Aleutian Is,52.5,-171.25,1066,Stratovolcano,Historical,D1
0507-03=,Aoba,Vanuatu,Vanuatu-SW Pacific,-15.4,167.83,1496,Shield volcano,Historical,D1
1505-107,Aracar,Argentina,Argentina,-24.27,-67.77,6082,Stratovolcano,Historical,D1
0201-126,Ardoukoba,Djibouti,Africa-NE,11.58,42.47,298,Fissure vent,Historical,D1
1405-033,Arenal,Costa Rica,Costa Rica,10.463,-84.703,1657,Stratovolcano,Historical,D1
0803-11=,Asama,Japan,Honshu-Japan,36.4,138.53,2560,Complex volcano,Historical,D1
0802-11=,Aso,Japan,Kyushu-Japan,32.88,131.1,1592,Caldera,Historical,D1
1101-16-,Atka,United States,Aleutian Is,52.38,-174.15,1533,Stratovolcano,Historical,D1
1103-01-,Augustine,United States,Alaska-SW,59.37,-153.42,1252,Lava dome,Historical,D1
1000-10=,Avachinsky,Russia,Kamchatka,53.255,158.83,2741,Stratovolcano,Historical,D1
0607-04=,Awu,Indonesia,Sangihe Is-Indonesia,3.67,125.5,1320,Stratovolcano,Historical,D1
1301-011,Axial Seamount,Pacific Ocean,Pacific-NE,45.95,-130,-1500,Submarine volcano,Historical,D1
1503-06=,"Azul, Cerro",Ecuador,Galapagos,-0.9,-91.42,1690,Shield volcano,Historical,D1
1507-06=,"Azul, Cerro [Quizapu]",Chile,Chile-C,-35.653,-70.761,3788,Stratovolcano,Historical,D1
0803-18=,Azuma,Japan,Honshu-Japan,37.73,140.25,2024,Stratovolcano,Historical,D1
0505-02=,Bagana,Papua New Guinea,Bougainville-SW Paci,-6.14,155.195,1750,Lava cone,Historical,D1
0605-09=,Banda Api,Pacific Ocean,Banda Sea,-4.525,129.871,640,Caldera,Historical,D1
0600-01=,Barren Island,India,Andaman Is-Indian O,12.292,93.875,354,Stratovolcano,Historical,D1
0604-01=,Batur,Indonesia,Lesser Sunda Is,-8.242,115.375,1717,Caldera,Historical,D1
0804-07=,Bayonnaise Rocks,Japan,Izu Is-Japan,31.92,139.92,10,Submarine volcano,Historical,D1
1000-25=,Bezymianny,Russia,Kamchatka,55.978,160.587,2882,Stratovolcano,Historical,D1
1101-30-,Bogoslof,United States,Aleutian Is,53.93,-168.03,101,Submarine volcano,Historical,D1
0703-01=,Bulusan,Philippines,Luzon-Philippines,12.77,124.05,1565,Stratovolcano,Historical,D1
1507-091,Callaqui,Chile,Chile-C,-37.92,-71.45,3164,Stratovolcano,Historical,D1
0204-01=,"Cameroon, Mt.",Cameroon,Africa-W,4.203,9.17,4095,Stratovolcano,Historical,D1
1507-14=,Carran-Los Venados,Chile,Chile-C,-40.35,-72.07,1114,Pyroclastic cone,Historical,D1
1508-041,Chaiten,Chile,Chile-S,-42.833,-72.646,962,Caldera,Holocene,D1
1401-12=,"Chichon, El",Mexico,Mexico,17.36,-93.228,1150,Tuff cone,Historical,D1
1102-11-,Chiginagak,United States,Alaska Peninsula,57.13,-157,2075,Stratovolcano,Historical,D1
0900-36=,Chikurachki,Russia,Kuril Is,50.325,155.458,1816,Stratovolcano,Historical,D1
1507-07=,"Chillan, Nevados de",Chile,Chile-C,-36.863,-71.377,3212,Stratovolcano,Historical,D1
0900-26=,Chirinkotan,Russia,Kuril Is,48.98,153.48,724,Stratovolcano,Historical,D1
0900-15=,Chirpoi,Russia,Kuril Is,46.525,150.875,742,Caldera,Historical,D1
0803-22=,Chokai,Japan,Honshu-Japan,39.08,140.03,2237,Stratovolcano,Historical,D1
1301-02-,Cleft Segment,Pacific Ocean,Pacific-NE,44.83,-130.3,-2140,Submarine volcano,Historical,D1
1101-24-,Cleveland,United States,Aleutian Is,52.82,-169.95,1730,Stratovolcano,Historical,D1
1401-04=,Colima,Mexico,Mexico,19.514,-103.62,3850,Stratovolcano,Historical,D1
0606-01=,Colo [Una Una],Indonesia,Sulawesi-Indonesia,-0.17,121.608,507,Stratovolcano,Historical,D1
1404-12=,Concepcion,Nicaragua,Nicaragua,11.538,-85.622,1700,Stratovolcano,Historical,D1
1507-09=,Copahue,Chile,Chile-C,-37.85,-71.17,2965,Stratovolcano,Historical,D1
0403-101,Curacoa,Tonga,Tonga-SW Pacific,-15.62,-173.67,-33,Submarine volcano,Historical,D1
1900-03=,Deception Island,Antarctica,Antarctica,-62.97,-60.65,576,Caldera,Historical,D1
0601-23=,Dempo,Indonesia,Sumatra,-4.03,103.13,3173,Stratovolcano,Historical,D1
0704-02=,Didicas,Philippines,Luzon-N of,19.077,122.202,244,Compound volcano,Historical,D1
0603-20=,Dieng Volc Complex,Indonesia,Java,-7.2,109.92,2565,Complex volcano,Historical,D1
0608-01=,Dukono,Indonesia,Halmahera-Indonesia,1.68,127.88,1185,Complex volcano,Historical,D1
0508-001,Eastern Gemini Seamount,Pacific Ocean,SW Pacific,-20.98,170.28,-80,Submarine volcano,Historical,D1
0900-38=,Ebeko,Russia,Kuril Is,50.68,156.02,1156,Somma volcano,Historical,D1
0604-10=,Ebulobo,Indonesia,Lesser Sunda Is,-8.808,121.18,2124,Stratovolcano,Historical,D1
0900-27=,Ekarma,Russia,Kuril Is,48.958,153.93,1170,Stratovolcano,Historical,D1
1301-01-,Endeavour Ridge,Pacific Ocean,Pacific-NE,47.95,-129.1,-2400,Submarine volcano,Historical,D1
0507-06=,Epi,Vanuatu,Vanuatu-SW Pacific,-16.68,168.37,833,Stratovolcano,Historical,D1
1900-02=,Erebus,Antarctica,Antarctica,-77.53,167.17,3794,Stratovolcano,Historical,D1
0201-08=,Erta Ale,Ethiopia,Africa-NE,13.6,40.67,613,Shield volcano,Historical,D1
0101-06=,Etna,Italy,Italy,37.734,15.004,3350,Stratovolcano,Historical,D1
1702-02=,Eyjafjallajokull,Iceland,Iceland-S,63.63,-19.62,1666,Stratovolcano,Historical,D1
0804-14=,Farallon de Pajaros,United States,Mariana Is-C Pacific,20.53,144.9,360,Stratovolcano,Historical,D1
1503-01=,Fernandina,Ecuador,Galapagos,-0.37,-91.55,1495,Shield volcano,Historical,D1
1804-01=,Fogo,Cape Verde,Cape Verde Is,14.95,-24.35,2829,Stratovolcano,Historical,D1
0303-02=,"Fournaise, Piton de la",Reunion,Indian O-W,-21.229,55.713,2631,Shield volcano,Historical,D1
1402-09=,Fuego,Guatemala,Guatemala,14.473,-90.88,3763,Stratovolcano,Historical,D1
0804-133,Fukujin,Japan,Volcano Is-Japan,21.925,143.442,-217,Submarine volcano,Historical,D1
0804-13=,Fukutoku-okanoba,Japan,Volcano Is-Japan,24.28,141.52,-14,Submarine volcano,Historical,D1
1303-02-,Galapagos Rift,Pacific Ocean,Pacific-E,0.792,-86.15,-2430,Submarine volcano,Historical,D1
1501-08=,Galeras,Colombia,Colombia,1.22,-77.37,4276,Complex volcano,Historical,D1
0603-14=,Galunggung,Indonesia,Java,-7.25,108.05,2168,Stratovolcano,Historical,D1
0608-06=,Gamalama,Indonesia,Halmahera-Indonesia,0.8,127.325,1715,Stratovolcano,Historical,D1
0608-04=,Gamkonora,Indonesia,Halmahera-Indonesia,1.375,127.52,1635,Stratovolcano,Historical,D1
1101-07-,Gareloi,United States,Aleutian Is,51.78,-178.8,1573,Stratovolcano,Historical,D1
0507-02=,Gaua,Vanuatu,Vanuatu-SW Pacific,-14.27,167.5,797,Stratovolcano,Historical,D1
1000-07=,Gorely,Russia,Kamchatka,52.558,158.03,1829,Caldera,Historical,D1
1101-12-,Great Sitkin,United States,Aleutian Is,52.08,-176.13,1740,Stratovolcano,Historical,D1
1703-01=,Grimsvotn,Iceland,Iceland-NE,64.42,-17.33,1725,Caldera,Historical,D1
0900-07=,Grozny Group,Russia,Kuril Is,45.02,147.87,1211,Complex volcano,Historical,D1
1502-02=,Guagua Pichincha,Ecuador,Ecuador,-0.171,-78.598,4784,Stratovolcano,Historical,D1
0304-01=,Heard,Heard I. & McDonald Is.,Indian O-S,-53.106,73.513,2745,Stratovolcano,Historical,D1
1702-07=,Hekla,Iceland,Iceland-S,63.98,-19.7,1491,Stratovolcano,Historical,D1
0403-08=,Home Reef,Tonga,Tonga-SW Pacific,-18.992,-174.775,-2,Submarine volcano,Historical,D1
1508-057,"Hudson, Cerro",Chile,Chile-S,-45.9,-72.97,1905,Stratovolcano,Historical,D1
0403-04=,Hunga Tonga-Hunga Ha'apai,Tonga,Tonga-SW Pacific,-20.57,-175.38,0,Submarine volcano,Historical,D1
0608-03=,Ibu,Indonesia,Halmahera-Indonesia,1.475,127.642,1325,Stratovolcano,Historical,D1
0603-35=,Ijen,Indonesia,Java,-8.058,114.242,2799,Stratovolcano,Historical,D1
0604-22=,Iliboleng,Indonesia,Lesser Sunda Is,-8.342,123.258,1659,Stratovolcano,Historical,D1
0604-25=,Iliwerung,Indonesia,Lesser Sunda Is,-8.54,123.59,1018,Complex volcano,Historical,D1
1405-06=,Irazu,Costa Rica,Costa Rica,9.979,-83.852,3432,Stratovolcano,Historical,D1
1505-04=,Irruputuncu,Bolivia,Chile-N,-20.73,-68.55,5163,Stratovolcano,Historical,D1
0802-02=,Iwo-Tori-shima,Japan,Ryukyu Is,27.85,128.25,217,Complex volcano,Historical,D1
0804-12=,Iwo-jima,Japan,Volcano Is-Japan,24.75,141.33,161,Caldera,Historical,D1
0604-11=,Iya,Indonesia,Lesser Sunda Is,-8.88,121.63,637,Stratovolcano,Historical,D1
1403-03=,Izalco,El Salvador,El Salvador,13.813,-89.633,1950,Stratovolcano,Historical,D1
0803-01=,Izu-Tobu,Japan,Honshu-Japan,34.92,139.12,1406,Pyroclastic cone,Historical,D1
1706-01=,Jan Mayen,Jan Mayen,Atlantic-N-Jan Mayen,71.08,-8.17,2277,Stratovolcano,Historical,D1
0804-10=,Kaitoku Seamount,Japan,Volcano Is-Japan,26.122,141.102,-10,Submarine volcano,Historical,D1
1101-11-,Kanaga,United States,Aleutian Is,51.92,-177.17,1307,Stratovolcano,Historical,D1
0702-02=,Kanlaon,Philippines,Philippines-C,10.412,123.132,2435,Stratovolcano,Historical,D1
0607-02=,Karangetang [Api Siau],Indonesia,Sangihe Is-Indonesia,2.78,125.48,1784,Stratovolcano,Historical,D1
0501-03=,Karkar,Papua New Guinea,New Guinea-NE of,-4.649,145.964,1839,Stratovolcano,Historical,D1
0303-01=,Karthala,Comoros,Indian O-W,-11.75,43.38,2361,Shield volcano,Historical,D1
1000-13=,Karymsky,Russia,Kamchatka,54.05,159.43,1536,Stratovolcano,Historical,D1
1101-13-,Kasatochi,United States,Aleutian Is,52.18,-175.5,314,Stratovolcano,Historical,D1
0505-06=,Kavachi,Solomon Is.,Solomon Is-SW Pacifi,-9.02,157.95,-20,Submarine volcano,Historical,D1
0604-14=,Kelimutu,Indonesia,Lesser Sunda Is,-8.758,121.83,1640,Complex volcano,Historical,D1
0603-28=,Kelut,Indonesia,Java,-7.93,112.308,1731,Stratovolcano,Historical,D1
0601-17=,Kerinci,Indonesia,Sumatra,-1.814,101.264,3800,Stratovolcano,Historical,D1
1600-16=,Kick-'em-Jenny,Netherlands,W Indies,12.3,-61.63,-177,Submarine volcano,Historical,D1
0802-06=,Kikai,Japan,Ryukyu Is,30.78,130.28,717,Caldera,Historical,D1
1302-01-,Kilauea,United States,Hawaiian Is,19.425,-155.292,1222,Shield volcano,Historical,D1
0802-09=,Kirishima,Japan,Kyushu-Japan,31.93,130.87,1700,Shield volcano,Historical,D1
1101-02-,Kiska,United States,Aleutian Is,52.1,177.6,1220,Stratovolcano,Historical,D1
1000-26=,Kliuchevskoi,Russia,Kamchatka,56.057,160.638,4835,Stratovolcano,Historical,D1
0900-12=,Kolokol Group,Russia,Kuril Is,46.042,150.05,1328,Somma volcano,Historical,D1
0805-02=,Komaga-take,Japan,Hokkaido-Japan,42.07,140.68,1140,Stratovolcano,Historical,D1
1703-08=,Krafla,Iceland,Iceland-NE,65.73,-16.78,650,Caldera,Historical,D1
1702-09-,Krakagiger,Iceland,Iceland-S,63.98,-19.7,1491,Stratovolcano,Historical,D1
0602-00=,Krakatau,Indonesia,Indonesia,-6.102,105.423,813,Caldera,Historical,D1
0802-05=,Kuchinoerabu-jima,Japan,Ryukyu Is,30.43,130.22,649,Stratovolcano,Historical,D1
0802-12=,Kuju Group,Japan,Kyushu-Japan,33.08,131.25,1788,Stratovolcano,Historical,D1
1102-06-,Kupreanof,United States,Alaska Peninsula,56.02,-159.8,1895,Stratovolcano,Historical,D1
0803-12=,Kusatsu-Shirane,Japan,Honshu-Japan,36.62,138.55,2176,Stratovolcano,Historical,D1
0507-07=,Kuwae,Vanuatu,Vanuatu-SW Pacific,-16.829,168.536,-2,Caldera,Historical,D1
1703-05=,Kverkfjoll,Iceland,Iceland-NE,64.65,-16.72,1920,Stratovolcano,Historical,D1
1803-01-,La Palma,Spain,Canary Is,28.58,-17.83,2426,Stratovolcano,Historical,D1
1702-15-,Lakagigar,Sweden,Iceland-NE,64.42,17.33,1725,Caldera,Historical,D1
1702-10-,Lambafit,Iceland,Iceland-S,64.08,-19.4,550,Crater rows,Historical,D1
0502-01=,Langila,Papua New Guinea,New Britain-SW Pac,-5.525,148.42,1330,Complex volcano,Historical,D1
1505-10=,Lascar,Chile,Chile-N,-23.37,-67.73,5592,Stratovolcano,Historical,D1
0202-12=,"Lengai, Ol Doinyo",Tanzania,Africa-E,-2.751,35.902,2890,Stratovolcano,Historical,D1
0604-18=,Lewotobi,Indonesia,Lesser Sunda Is,-8.53,122.775,1703,Stratovolcano,Historical,D1
0604-19=,Lewotobi Perempuan,Indonesia,Lesser Sunda Is,-8.575,122.78,1703,Stratovolcano,Historical,D1
1507-11=,Llaima,Chile,Chile-C,-38.692,-71.729,3125,Stratovolcano,Historical,D1
1302-00-,Loihi,United States,Hawaiian Is,18.92,-155.27,-975,Submarine volcano,Historical,D1
0606-10=,Lokon-Empung,Indonesia,Sulawesi-Indonesia,1.358,124.792,1580,Stratovolcano,Historical,D1
0501-05=,Long Island,Papua New Guinea,New Guinea-NE of,-5.358,147.12,1280,Complex volcano,Historical,D1
1507-10=,Lonquimay,Chile,Chile-C,-38.377,-71.58,2865,Stratovolcano,Historical,D1
0507-05=,Lopevi,Vanuatu,Vanuatu-SW Pacific,-16.507,168.346,1413,Stratovolcano,Historical,D1
1303-08-,Macdonald,Antarctica,Austral Is-C Pacific,-28.98,-140.25,-50,Submarine volcano,Historical,D1
0606-11=,Mahawu,Indonesia,Sulawesi-Indonesia,1.358,124.858,1324,Stratovolcano,Historical,D1
0608-07=,Makian,Indonesia,Halmahera-Indonesia,0.32,127.4,1357,Stratovolcano,Historical,D1
1101-31-,Makushin,United States,Aleutian Is,53.9,-166.93,2036,Stratovolcano,Historical,D1
0501-02=,Manam,Papua New Guinea,New Guinea-NE of,-4.1,145.061,1807,Stratovolcano,Historical,D1
0601-14=,Marapi,Indonesia,Sumatra,-0.381,100.473,2891,Complex volcano,Historical,D1
1503-08=,Marchena,Ecuador,Galapagos,0.33,-90.47,343,Shield volcano,Historical,D1
0304-07-,Marion Island,South Africa,Indian O-S,-46.9,37.75,1230,Shield volcano,Historical,D1
1404-10=,Masaya,Nicaragua,Nicaragua,11.984,-86.161,635,Caldera,Historical,D1
1302-02=,Mauna Loa,United States,Hawaiian Is,19.475,-155.608,4170,Shield volcano,Historical,D1
0703-03=,Mayon,Philippines,Luzon-Philippines,13.257,123.685,2462,Stratovolcano,Historical,D1
0304-011,McDonald Islands,Indian Ocean,Indian O-S,-53.03,72.6,186,Complex volcano,Historical,D1
0900-10=,Medvezhia,Russia,Kuril Is,45.38,148.83,1124,Somma volcano,Historical,D1
0603-25=,Merapi,Indonesia,Java,-7.542,110.442,2947,Stratovolcano,Historical,D1
0403-07=,Metis Shoal,Tonga,Tonga-SW Pacific,-19.18,-174.87,43,Submarine volcano,Historical,D1
0804-131,Minami-Hiyoshi,Japan,Volcano Is-Japan,23.507,141.905,-30,Submarine volcano,Historical,D1
0804-04=,Miyake-jima,Japan,Izu Is-Japan,34.08,139.53,815,Stratovolcano,Historical,D1
0402-05-,Monowai Seamount,New Zealand,Kermadec Is,-25.887,-177.188,-100,Submarine volcano,Historical,D1
1900-081,Montagu Island,Antarctica,Antarctica,-58.417,-26.333,1370,Shield volcano,Historical,D1
1702-08-,Mundafell,Iceland,Iceland-S,63.98,-19.7,1491,Stratovolcano,Historical,D1
0804-211,NW Rota-1,United States,Mariana Is-C Pacific,14.601,144.775,-517,Submarine volcano,Historical,D1
1503-05=,"Negra, Sierra",Ecuador,Galapagos,-0.83,-91.17,1490,Shield volcano,Historical,D1
1404-07=,"Negro, Cerro",Nicaragua,Nicaragua,12.506,-86.702,728,Cinder cone,Historical,D1
0401-09=,Ngauruhoe,New Zealand,New Zealand,-39.158,175.63,2291,Stratovolcano,Historical,D1
1806-011,Nightingale Island,United Kingdom,Atlantic-S,-37.417,-12.483,365,Stratovolcano,Historical,D1
0803-09=,Niigata-Yake-yama,Japan,Honshu-Japan,36.92,138.03,2400,Lava dome,Historical,D1
0605-06=,Nila,Pacific Ocean,Banda Sea,-6.73,129.5,781,Stratovolcano,Historical,D1
0403-11=,Niuafo'ou,Tonga,Tonga-SW Pacific,-15.6,-175.63,260,Shield volcano,Historical,D1
1301-021,North Gorda Ridge,Pacific Ocean,Pacific-NE,42.67,-126.78,-3000,Submarine volcano,Historical,D1
0203-02=,Nyamuragira,"Congo, DRC",Africa-C,-1.408,29.2,3058,Shield volcano,Historical,D1
0203-03=,Nyiragongo,"Congo, DRC",Africa-C,-1.52,29.25,3470,Stratovolcano,Historical,D1
0401-05=,Okataina,New Zealand,New Zealand,-38.12,176.5,1111,Lava dome,Historical,D1
1101-29-,Okmok,United States,Aleutian Is,53.42,-168.13,1073,Shield volcano,Historical,D1
0803-04=,On-take,Japan,Honshu-Japan,35.9,137.48,3063,Complex volcano,Historical,D1
0804-01=,Oshima,Japan,Izu Is-Japan,34.73,139.38,758,Stratovolcano,Historical,D1
1402-11=,Pacaya,Guatemala,Guatemala,14.381,-90.601,2552,Complex volcano,Historical,D1
0804-17=,Pagan,United States,Mariana Is-C Pacific,18.13,145.8,570,Stratovolcano,Historical,D1
0604-15=,Paluweh,Indonesia,Lesser Sunda Is,-8.32,121.708,875,Stratovolcano,Historical,D1
1102-03-,Pavlof,United States,Alaska Peninsula,55.42,-161.9,2519,Stratovolcano,Historical,D1
0601-03=,Peuet Sague,Indonesia,Sumatra,4.914,96.329,2801,Complex volcano,Historical,D1
0703-083,Pinatubo,Philippines,Luzon-Philippines,15.13,120.35,1486,Stratovolcano,Historical,D1
1600-21-,Piparo,Trinidad,Trinidad,10,-61,140,Mud volcano,Historical,D1
1507-04=,Planchon-Peteroa,Chile,Chile-C,-35.24,-70.57,4107,Caldera,Historical,D1
1405-04=,Poas,Costa Rica,Costa Rica,10.2,-84.233,2708,Stratovolcano,Historical,D1
1401-09=,Popocatepetl,Mexico,Mexico,19.023,-98.622,5426,Stratovolcano,Historical,D1
1501-06=,Purace,Colombia,Colombia,2.32,-76.4,4650,Stratovolcano,Historical,D1
1505-09=,Putana,Chile,Chile-N,-22.57,-67.87,5890,Stratovolcano,Historical,D1
0502-14=,Rabaul,Papua New Guinea,New Britain-SW Pac,-4.271,152.203,688,Pyroclastic shield,Historical,D1
0604-071,Ranakah,Indonesia,Lesser Sunda Is,-8.62,120.52,2100,Lava dome,Historical,D1
0402-03=,Raoul Island,New Zealand,Kermadec Is,-29.27,-177.92,516,Stratovolcano,Historical,D1
0603-34=,Raung,Indonesia,Java,-8.125,114.042,3332,Stratovolcano,Historical,D1
1103-03-,Redoubt,United States,Alaska-SW,60.48,-152.75,3108,Stratovolcano,Historical,D1
1502-01=,Reventador,Ecuador,Ecuador,-0.078,-77.656,3562,Stratovolcano,Historical,D1
1701-01=,Reykjaneshryggur,Iceland,Iceland-SW,63.67,-23.33,80,Submarine volcanoes,Historical,D1
1405-02=,Rincon de la Vieja,Costa Rica,Costa Rica,10.83,-85.324,1916,Complex volcano,Historical,D1
0604-03=,Rinjani,Indonesia,Lesser Sunda Is,-8.42,116.47,3726,Stratovolcano,Historical,D1
0501-07=,Ritter Island,Papua New Guinea,New Guinea-NE of,-5.52,148.121,140,Stratovolcano,Historical,D1
0401-10=,Ruapehu,New Zealand,New Zealand,-39.28,175.57,2797,Stratovolcano,Historical,D1
0804-201,Ruby,United States,Mariana Is-C Pacific,15.62,145.57,-230,Submarine volcano,Historical,D1
1501-02=,Ruiz,Colombia,Colombia,4.895,-75.322,5321,Stratovolcano,Historical,D1
0401-13-,Rumble III,New Zealand,New Zealand,-35.745,178.478,-140,Submarine volcano,Hydrophonic,D1
1504-006,Sabancaya,Peru,Peru,-15.783,-71.85,5967,Stratovolcanoes,Historical,D1
1504-003,Sabancaya,Peru,Peru,-15.78,-71.85,5967,Stratovolcano,Historical,D1
0802-08=,Sakura-jima,Japan,Kyushu-Japan,31.58,130.67,1117,Stratovolcano,Historical,D1
1404-02=,San Cristobal,Nicaragua,Nicaragua,12.702,-87.004,1745,Stratovolcano,Historical,D1
1403-10=,San Miguel,El Salvador,El Salvador,13.431,-88.272,2130,Stratovolcano,Historical,D1
1502-09=,Sangay,Ecuador,Ecuador,-2.03,-78.33,5230,Stratovolcano,Historical,D1
0604-05=,Sangeang Api,Indonesia,Lesser Sunda Is,-8.18,119.058,1949,Complex volcano,Historical,D1
1402-03=,Santa Maria,Guatemala,Guatemala,14.756,-91.552,3772,Stratovolcano,Historical,D1
0900-24=,Sarychev Peak,Russia,Kuril Is,48.092,153.2,1496,Stratovolcano,Historical,D1
1101-18-,Seguam,United States,Aleutian Is,52.32,-172.52,1054,Stratovolcano,Historical,D1
0603-30=,Semeru,Indonesia,Java,-8.108,112.92,3676,Stratovolcano,Historical,D1
1101-06-,Semisopochnoi,United States,Aleutian Is,51.95,179.62,1221,Stratovolcano,Historical,D1
0805-04=,Shikotsu,Japan,Hokkaido-Japan,42.7,141.33,1320,Caldera,Historical,D1
1101-36-,Shishaldin,United States,Aleutian Is,54.75,-163.97,2857,Stratovolcano,Historical,D1
1000-27=,Shiveluch,Russia,Kamchatka,56.653,161.36,3283,Stratovolcano,Historical,D1
0604-27=,Sirung,Indonesia,Lesser Sunda Is,-8.51,124.148,862,Complex volcano,Historical,D1
0603-18=,Slamet,Indonesia,Java,-7.242,109.208,3432,Stratovolcano,Historical,D1
1401-021,Socorro,Mexico,Mexico-Is,18.78,-110.95,1050,Shield volcano,Historical,D1
0606-03=,Soputan,Indonesia,Sulawesi-Indonesia,1.108,124.725,1784,Stratovolcano,Historical,D1
0601-12=,Sorikmarapi,Indonesia,Sumatra,0.686,99.539,2145,Stratovolcano,Historical,D1
1600-06=,Soufriere Guadeloupe,Guadeloupe,W Indies,16.05,-61.67,1467,Stratovolcano,Historical,D1
1600-05=,Soufriere Hills,Montserrat,W Indies,16.72,-62.18,915,Stratovolcano,Historical,D1
1600-15=,Soufriere St. Vincent,St. Vincent & the Grenadines,W Indies,13.33,-61.18,1220,Stratovolcano,Historical,D1
1103-04-,Spurr,United States,Alaska-SW,61.3,-152.25,3374,Stratovolcano,Historical,D1
1201-05-,St. Helens,United States,US-Washington,46.2,-122.18,2549,Stratovolcano,Historical,D1
0101-04=,Stromboli,Italy,Italy,38.789,15.213,926,Stratovolcano,Historical,D1
0603-21=,Sundoro,Indonesia,Java,-7.3,109.992,3136,Stratovolcano,Historical,D1
0804-142,Supply Reef,United States,Mariana Is-C Pacific,20.13,145.1,-8,Submarine volcano,Hydrophonic,D1
0507-01=,Suretamatai,Vanuatu,Vanuatu-SW Pacific,-13.8,167.47,921,Complex volcano,Historical,D1
0802-03=,Suwanose-jima,Japan,Ryukyu Is,29.53,129.72,799,Stratovolcano,Historical,D1
0703-07=,Taal,Philippines,Luzon-Philippines,14.002,120.993,400,Stratovolcano,Historical,D1
1401-13=,Tacana,Mexico,Mexico,15.13,-92.112,4110,Stratovolcano,Historical,D1
0403-12-,Tafu-Maka,Tonga,Tonga-SW Pacific,-15.367,-174.233,-1400,Submarine volcano,Historical,D1
0601-16=,Talang,Indonesia,Sumatra,-0.978,100.679,2597,Stratovolcano,Historical,D1
0604-04=,Tambora,Indonesia,Lesser Sunda Is,-8.25,118,2850,Stratovolcano,Historical,D1
0603-09=,Tangkubanparahu,Indonesia,Java,-6.77,107.6,2084,Stratovolcano,Historical,D1
1404-04=,Telica,Nicaragua,Nicaragua,12.602,-86.845,1061,Stratovolcano,Historical,D1
0603-31=,Tengger Caldera,Indonesia,Java,-7.942,112.95,2329,Stratovolcano,Historical,D1
1802-05=,Terceira,Portugal,Azores,38.73,-27.32,1023,Stratovolcano,Historical,D1
1900-07=,Thule Islands,Antarctica,Antarctica,-59.45,-27.37,1075,Stratovolcano,Historical,D1
0900-03=,Tiatia,Russia,Kuril Is,44.358,146.27,1819,Stratovolcano,Historical,D1
0506-01=,Tinakula,Solomon Is.,Santa Cruz Is-SW Pac,-10.38,165.8,851,Stratovolcano,Historical,D1
0805-05=,Tokachi,Japan,Hokkaido-Japan,43.42,142.68,2077,Stratovolcano,Historical,D1
1000-24=,Tolbachik,Russia,Kamchatka,55.83,160.33,3682,Shield volcano,Historical,D1
0401-08=,Tongariro,New Zealand,New Zealand,-39.13,175.642,1978,Stratovolcano,Historical,D1
0804-09=,Tori-shima,Japan,Izu Is-Japan,30.48,140.32,403,Stratovolcano,Historical,D1
1102-16-,Trident,United States,Alaska Peninsula,58.23,-155.08,1864,Stratovolcano,Historical,D1
1502-08=,Tungurahua,Ecuador,Ecuador,-1.467,-78.442,5023,Stratovolcano,Historical,D1
1507-01=,Tupungatito,Chile,Chile-C,-33.4,-69.8,6000,Stratovolcano,Historical,D1
1504-02=,Ubinas,Peru,Peru,-16.355,-70.903,5672,Stratovolcano,Historical,D1
1102-131,Ukinrek Maars,United States,Alaska Peninsula,57.83,-156.52,91,Maar,Historical,D1
0502-12=,Ulawun,Papua New Guinea,New Britain-SW Pac,-5.05,151.33,2334,Stratovolcano,Historical,D1
0508-03-,Unnamed,Pacific Ocean,SW Pacific,-25.78,168.63,-2400,Submarine volcano,Hydrophonic,D1
1304-04-,Unnamed,Pacific Ocean,Pacific-E,10.733,-103.583,,Submarine volcano,Historical,D1
1101-17-,Unnamed,United States,Aleutian Is,52,-173.5,0,Submarine volcano,Hydrophonic,D1
1304-05-,Unnamed,Pacific Ocean,Pacific-E,9.833,-104.3,-2500,Submarine volcano,Historical,D1
0900-16-,Unnamed,Russia,Kuril Is,46.47,151.28,-502,Submarine volcano,Hydrophonic,D1
0500-03-,Unnamed,United States,Admiralty Is-SW Paci,-3.03,147.78,-1300,Submarine volcano,Hydrophonic,D1
1303-01-,Unnamed,Pacific Ocean,Pacific-E,9.82,-104.3,-2500,Submarine volcano,Historical,D1
0403-03=,Unnamed,Tonga,Tonga-SW Pacific,-20.85,-175.53,-13,Submarine volcano,Historical,D1
0403-091,Unnamed,Tonga,Tonga-SW Pacific,-18.325,-174.365,-40,Submarine volcano,Historical,D1
0802-10=,Unzen,Japan,Kyushu-Japan,32.75,130.3,1500,Complex volcano,Historical,D1
0805-03=,Usu,Japan,Hokkaido-Japan,42.53,140.83,731,Stratovolcano,Historical,D1
1102-07-,Veniaminof,United States,Alaska Peninsula,56.17,-159.38,2507,Stratovolcano,Historical,D1
1702-01=,Vestmannaeyjar,Iceland,Iceland-S,63.43,-20.28,279,Submarine volcano,Historical,D1
1508-061,"Viedma, Volcan",Argentina,Argentina,-49.358,-73.28,1300,Subglacial volcano,Historical,D1
1507-12=,Villarrica,Chile,Chile-C,-39.42,-71.93,2847,Stratovolcano,Historical,D1
0403-13-,West Mata,Tonga,Tonga-SW Pacific,-15.1,-173.75,-1174,Submarine volcano,Historical,D1
1101-34-,Westdahl,United States,Aleutian Is,54.52,-164.65,1654,Stratovolcano,Historical,D1
0401-04=,White Island,New Zealand,New Zealand,-37.52,177.18,321,Stratovolcano,Historical,D1
1503-02=,"Wolf, Volcan",Ecuador,Galapagos,0.02,-91.35,1710,Shield volcano,Historical,D1
0803-07=,Yake-dake,Japan,Honshu-Japan,36.22,137.58,2455,Stratovolcano,Historical,D1
0507-10=,Yasur,Vanuatu,Vanuatu-SW Pacific,-19.52,169.425,361,Stratovolcano,Historical,D1
1000-04=,Zheltovsky,Russia,Kamchatka,51.57,157.323,1953,Stratovolcano,Historical,D1
